STARLINK-33834          
1 63586U 25076T   25361.72265031  .00034556  00000+0  12606-2 0  9990
2 63586  43.0005   8.1583 0001544 210.9227 149.1534 15.27547220 40820
STARLINK-33830          
1 63587U 25076U   25361.32775169  .00034305  00000+0  12497-2 0  9995
2 63587  42.9987  10.3494 0000896 277.1936  82.8813 15.27596667 40760
STARLINK-33651          
1 63588U 25076V   25361.72135370  .00025116  00000+0  91857-3 0  9992
2 63588  43.0028   8.1456 0001547 273.3877  86.6798 15.27599658 40822
STARLINK-33788          
1 63589U 25076W   25361.73805823  .00051796  00000+0  18762-2 0  9997
2 63589  43.0022   8.2728 0001341 292.9199  67.1511 15.27621596 40820
STARLINK-33805          
1 63590U 25076X   25361.02909070  .00030103  00000+0  10986-2 0  9999
2 63590  43.0029  12.4009 0001283 259.5501 100.5206 15.27592846 40715
STARLINK-33702          
1 63591U 25076Y   25361.30976519  .00037111  00000+0  13507-2 0  9991
2 63591  42.9971  10.2098 0000291 261.5363  98.5456 15.27594875 40763
STARLINK-33666          
1 63592U 25076Z   25361.73292066  .00042354  00000+0  15387-2 0  9990
2 63592  43.0035   8.2289 0001029 273.8838  86.1896 15.27605283 40823
STARLINK-33723          
1 63593U 25076AA  25361.05463275  .00030001  00000+0  10954-2 0  9999
2 63593  42.9975  11.7370 0001029 290.3471  69.7270 15.27575910 40727
STARLINK-33791          
1 63594U 25076AB  25361.73549480  .00035510  00000+0  12933-2 0  9997
2 63594  42.9972   8.2456 0000426  55.5210 304.5682 15.27589233 40824
STARLINK-33831          
1 63595U 25076AC  25361.71235507  .00033949  00000+0  12384-2 0  9992
2 63595  42.9990   8.0135 0000590 274.5651  85.5133 15.27556778 40826
STARLINK-33879          
1 63634U 25083A   25361.18134274  .00005955  00000+0  22610-3 0  9994
2 63634  42.9978  55.0464 0001213 258.8413 101.2302 15.27526283 38972
STARLINK-33854          
1 63635U 25083B   25361.85816291  .00037346  00000+0  13583-2 0  9992
2 63635  42.9993  50.6684 0001214 285.6636  74.4082 15.27616220 39081
STARLINK-33864          
1 63636U 25083C   25361.83905044  .00050505  00000+0  18333-2 0  9996
2 63636  42.9936  51.3823 0001749  63.6340 296.4691 15.27562362 39103
STARLINK-33832          
1 63637U 25083D   25361.85045345  .00033202  00000+0  12107-2 0  9996
2 63637  42.9994  50.6120 0003193 266.5674  93.4813 15.27575270 39089
STARLINK-33856          
1 63638U 25083E   25361.53380573  .00032125  00000+0  11710-2 0  9999
2 63638  43.0034  52.5249 0001095 268.8760  91.1967 15.27604977 39037
STARLINK-33876          
1 63639U 25083F   25361.41845319  .00035415  00000+0  12895-2 0  9991
2 63639  43.0017  53.3768 0001807 286.7782  73.2871 15.27599568 39010
STARLINK-33859          
1 63640U 25083G   25361.83776561  .00043585  00000+0  15849-2 0  9990
2 63640  42.9932  51.3758 0001635  65.1772 294.9249 15.27561470 39078
