[{"OBJECT_NAME":"STARLINK-33834","OBJECT_ID":"2025-076T","EPOCH":"2025-12-27T17:20:36.986784","MEAN_MOTION":15.2754722,"ECCENTRICITY":0.0001544,"INCLINATION":43.0005,"RA_OF_ASC_NODE":8.1583,"ARG_OF_PERICENTER":210.9227,"MEAN_ANOMALY":149.1534,"EPHEMERIS_TYPE":0,"CLASSIFICATION_TYPE":"U","NORAD_CAT_ID":63586,"ELEMENT_SET_NO":999,"REV_AT_EPOCH":4082,"BSTAR":0.0012606,"MEAN_MOTION_DOT":0.00034556,"MEAN_MOTION_DDOT":0},{"OBJECT_NAME":"STARLINK-33830","OBJECT_ID":"2025-076U","EPOCH":"2025-12-27T07:51:57.746016","MEAN_MOTION":15.27596667,"ECCENTRICITY":8.96e-5,"INCLINATION":42.9987,"RA_OF_ASC_NODE":10.3494,"ARG_OF_PERICENTER":277.1936,"MEAN_ANOMALY":82.8813,"EPHEMERIS_TYPE":0,"CLASSIFICATION_TYPE":"U","NORAD_CAT_ID":63587,"ELEMENT_SET_NO":999,"REV_AT_EPOCH":4076,"BSTAR":0.0012497,"MEAN_MOTION_DOT":0.00034305,"MEAN_MOTION_DDOT":0},{"OBJECT_NAME":"STARLINK-33651","OBJECT_ID":"2025-076V","EPOCH":"2025-12-27T17:18:44.959680","MEAN_MOTION":15.27599658,"ECCENTRICITY":0.0001547,"INCLINATION":43.0028,"RA_OF_ASC_NODE":8.1456,"ARG_OF_PERICENTER":273.3877,"MEAN_ANOMALY":86.6798,"EPHEMERIS_TYPE":0,"CLASSIFICATION_TYPE":"U","NORAD_CAT_ID":63588,"ELEMENT_SET_NO":999,"REV_AT_EPOCH":4082,"BSTAR":0.00091857,"MEAN_MOTION_DOT":0.00025116,"MEAN_MOTION_DDOT":0},{"OBJECT_NAME":"STARLINK-33788","OBJECT_ID":"2025-076W","EPOCH":"2025-12-27T17:42:48.231072","MEAN_MOTION":15.27621596,"ECCENTRICITY":0.0001341,"INCLINATION":43.0022,"RA_OF_ASC_NODE":8.2728,"ARG_OF_PERICENTER":292.9199,"MEAN_ANOMALY":67.1511,"EPHEMERIS_TYPE":0,"CLASSIFICATION_TYPE":"U","NORAD_CAT_ID":63589,"ELEMENT_SET_NO":999,"REV_AT_EPOCH":4082,"BSTAR":0.0018762,"MEAN_MOTION_DOT":0.00051796,"MEAN_MOTION_DDOT":0},{"OBJECT_NAME":"STARLINK-33805","OBJECT_ID":"2025-076X","EPOCH":"2025-12-27T00:41:53.436480","MEAN_MOTION":15.27592846,"ECCENTRICITY":0.00012833,"INCLINATION":43.0029,"RA_OF_ASC_NODE":12.4009,"ARG_OF_PERICENTER":259.5501,"MEAN_ANOMALY":100.5206,"EPHEMERIS_TYPE":0,"CLASSIFICATION_TYPE":"U","NORAD_CAT_ID":63590,"ELEMENT_SET_NO":999,"REV_AT_EPOCH":4071,"BSTAR":0.0010985586,"MEAN_MOTION_DOT":0.00030103,"MEAN_MOTION_DDOT":0},{"OBJECT_NAME":"STARLINK-33702","OBJECT_ID":"2025-076Y","EPOCH":"2025-12-27T07:26:03.712416","MEAN_MOTION":15.27594875,"ECCENTRICITY":2.91e-5,"INCLINATION":42.9971,"RA_OF_ASC_NODE":10.2098,"ARG_OF_PERICENTER":261.5363,"MEAN_ANOMALY":98.5456,"EPHEMERIS_TYPE":0,"CLASSIFICATION_TYPE":"U","NORAD_CAT_ID":63591,"ELEMENT_SET_NO":999,"REV_AT_EPOCH":4076,"BSTAR":0.0013507,"MEAN_MOTION_DOT":0.00037111,"MEAN_MOTION_DDOT":0},{"OBJECT_NAME":"STARLINK-33666","OBJECT_ID":"2025-076Z","EPOCH":"2025-12-27T17:35:24.345024","MEAN_MOTION":15.27605283,"ECCENTRICITY":0.0001029,"INCLINATION":43.0035,"RA_OF_ASC_NODE":8.2289,"ARG_OF_PERICENTER":273.8838,"MEAN_ANOMALY":86.1896,"EPHEMERIS_TYPE":0,"CLASSIFICATION_TYPE":"U","NORAD_CAT_ID":63592,"ELEMENT_SET_NO":999,"REV_AT_EPOCH":4082,"BSTAR":0.0015387,"MEAN_MOTION_DOT":0.00042354,"MEAN_MOTION_DDOT":0},{"OBJECT_NAME":"STARLINK-33723","OBJECT_ID":"2025-076AA","EPOCH":"2025-12-27T01:18:40.269600","MEAN_MOTION":15.2757591,"ECCENTRICITY":0.00010293,"INCLINATION":42.9975,"RA_OF_ASC_NODE":11.737,"ARG_OF_PERICENTER":290.3471,"MEAN_ANOMALY":69.727,"EPHEMERIS_TYPE":0,"CLASSIFICATION_TYPE":"U","NORAD_CAT_ID":63593,"ELEMENT_SET_NO":999,"REV_AT_EPOCH":4072,"BSTAR":0.0010954349,"MEAN_MOTION_DOT":0.00030001,"MEAN_MOTION_DDOT":0},{"OBJECT_NAME":"STARLINK-33791","OBJECT_ID":"2025-076AB","EPOCH":"2025-12-27T17:39:06.750720","MEAN_MOTION":15.27589233,"ECCENTRICITY":4.26e-5,"INCLINATION":42.9972,"RA_OF_ASC_NODE":8.2456,"ARG_OF_PERICENTER":55.521,"MEAN_ANOMALY":304.5682,"EPHEMERIS_TYPE":0,"CLASSIFICATION_TYPE":"U","NORAD_CAT_ID":63594,"ELEMENT_SET_NO":999,"REV_AT_EPOCH":4082,"BSTAR":0.0012933,"MEAN_MOTION_DOT":0.0003551,"MEAN_MOTION_DDOT":0},{"OBJECT_NAME":"STARLINK-33831","OBJECT_ID":"2025-076AC","EPOCH":"2025-12-27T17:05:47.478048","MEAN_MOTION":15.27556778,"ECCENTRICITY":5.9e-5,"INCLINATION":42.999,"RA_OF_ASC_NODE":8.0135,"ARG_OF_PERICENTER":274.5651,"MEAN_ANOMALY":85.5133,"EPHEMERIS_TYPE":0,"CLASSIFICATION_TYPE":"U","NORAD_CAT_ID":63595,"ELEMENT_SET_NO":999,"REV_AT_EPOCH":4082,"BSTAR":0.0012384,"MEAN_MOTION_DOT":0.00033949,"MEAN_MOTION_DDOT":0},{"OBJECT_NAME":"STARLINK-33879","OBJECT_ID":"2025-083A","EPOCH":"2025-12-27T04:21:08.012736","MEAN_MOTION":15.27526283,"ECCENTRICITY":0.00012138,"INCLINATION":42.9978,"RA_OF_ASC_NODE":55.0464,"ARG_OF_PERICENTER":258.8413,"MEAN_ANOMALY":101.2302,"EPHEMERIS_TYPE":0,"CLASSIFICATION_TYPE":"U","NORAD_CAT_ID":63634,"ELEMENT_SET_NO":999,"REV_AT_EPOCH":3897,"BSTAR":0.00022609904,"MEAN_MOTION_DOT":5.955e-5,"MEAN_MOTION_DDOT":0},{"OBJECT_NAME":"STARLINK-33854","OBJECT_ID":"2025-083B","EPOCH":"2025-12-27T20:35:45.275424","MEAN_MOTION":15.2761622,"ECCENTRICITY":0.0001214,"INCLINATION":42.9993,"RA_OF_ASC_NODE":50.6684,"ARG_OF_PERICENTER":285.6636,"MEAN_ANOMALY":74.4082,"EPHEMERIS_TYPE":0,"CLASSIFICATION_TYPE":"U","NORAD_CAT_ID":63635,"ELEMENT_SET_NO":999,"REV_AT_EPOCH":3908,"BSTAR":0.0013583,"MEAN_MOTION_DOT":0.00037346,"MEAN_MOTION_DDOT":0},{"OBJECT_NAME":"STARLINK-33864","OBJECT_ID":"2025-083C","EPOCH":"2025-12-27T20:08:13.958016","MEAN_MOTION":15.27562362,"ECCENTRICITY":0.0001749,"INCLINATION":42.9936,"RA_OF_ASC_NODE":51.3823,"ARG_OF_PERICENTER":63.634,"MEAN_ANOMALY":296.4691,"EPHEMERIS_TYPE":0,"CLASSIFICATION_TYPE":"U","NORAD_CAT_ID":63636,"ELEMENT_SET_NO":999,"REV_AT_EPOCH":3910,"BSTAR":0.0018333,"MEAN_MOTION_DOT":0.00050505,"MEAN_MOTION_DDOT":0},{"OBJECT_NAME":"STARLINK-33832","OBJECT_ID":"2025-083D","EPOCH":"2025-12-27T20:24:39.178080","MEAN_MOTION":15.2757527,"ECCENTRICITY":0.0003193,"INCLINATION":42.9994,"RA_OF_ASC_NODE":50.612,"ARG_OF_PERICENTER":266.5674,"MEAN_ANOMALY":93.4813,"EPHEMERIS_TYPE":0,"CLASSIFICATION_TYPE":"U","NORAD_CAT_ID":63637,"ELEMENT_SET_NO":999,"REV_AT_EPOCH":3908,"BSTAR":0.0012107,"MEAN_MOTION_DOT":0.00033202,"MEAN_MOTION_DDOT":0},{"OBJECT_NAME":"STARLINK-33856","OBJECT_ID":"2025-083E","EPOCH":"2025-12-27T12:48:40.815072","MEAN_MOTION":15.27604977,"ECCENTRICITY":0.0001095,"INCLINATION":43.0034,"RA_OF_ASC_NODE":52.5249,"ARG_OF_PERICENTER":268.876,"MEAN_ANOMALY":91.1967,"EPHEMERIS_TYPE":0,"CLASSIFICATION_TYPE":"U","NORAD_CAT_ID":63638,"ELEMENT_SET_NO":999,"REV_AT_EPOCH":3903,"BSTAR":0.001171,"MEAN_MOTION_DOT":0.00032125,"MEAN_MOTION_DDOT":0},{"OBJECT_NAME":"STARLINK-33876","OBJECT_ID":"2025-083F","EPOCH":"2025-12-27T10:02:34.355616","MEAN_MOTION":15.27599568,"ECCENTRICITY":0.0001807,"INCLINATION":43.0017,"RA_OF_ASC_NODE":53.3768,"ARG_OF_PERICENTER":286.7782,"MEAN_ANOMALY":73.2871,"EPHEMERIS_TYPE":0,"CLASSIFICATION_TYPE":"U","NORAD_CAT_ID":63639,"ELEMENT_SET_NO":999,"REV_AT_EPOCH":3901,"BSTAR":0.0012895,"MEAN_MOTION_DOT":0.00035415,"MEAN_MOTION_DDOT":0},{"OBJECT_NAME":"STARLINK-33859","OBJECT_ID":"2025-083G","EPOCH":"2025-12-27T20:06:22.948704","MEAN_MOTION":15.2756147,"ECCENTRICITY":0.0001635,"INCLINATION":42.9932,"RA_OF_ASC_NODE":51.3758,"ARG_OF_PERICENTER":65.1772,"MEAN_ANOMALY":294.9249,"EPHEMERIS_TYPE":0,"CLASSIFICATION_TYPE":"U","NORAD_CAT_ID":63640,"ELEMENT_SET_NO":999,"REV_AT_EPOCH":3907,"BSTAR":0.0015849,"MEAN_MOTION_DOT":0.00043585,"MEAN_MOTION_DDOT":0}]
